NORAD_CAT_ID,OBJECT_NAME,OBJECT_TYPE,EPOCH,MEAN_MOTION,ECCENTRICITY,INCLINATION,RA_OF_ASC_NODE,ARG_OF_PERICENTER,MEAN_ANOMALY,BSTAR,MEAN_MOTION_DOT,MEAN_MOTION_DDOT,TLE_LINE0,TLE_LINE1,TLE_LINE2,SEMIMAJOR_AXIS,PERIOD,APOGEE,PERIGEE,DECAYED
54094.0,STARLINK-5219,PAYLOAD,2024-01-03 06:23:52,15.08843582,0.0001354,53.2179,309.2353,92.7433,267.3714,0.00011544,1.55e-05,0.0,0 STARLINK-5219,1 54094U 22136AV  24003.26658381  .00001550  00000-0  11544-3 0  9993,2 54094  53.2179 309.2353 0001354  92.7433 267.3714 15.08843582 66755,6917.869,95.437,540.671,538.798,0.0
54094.0,STARLINK-5219,PAYLOAD,2024-01-04 01:28:30,15.0883854,0.0001436,53.2171,305.6646,98.453,261.6625,-9.8745e-05,-1.859e-05,0.0,0 STARLINK-5219,1 54094U 22136AV  24004.06146636 -.00001859  00000-0 -98745-4 0  9990,2 54094  53.2171 305.6646 0001436  98.4530 261.6625 15.08838540 67346,6917.885,95.438,540.743,538.756,0.0
54094.0,STARLINK-5219,PAYLOAD,2024-01-04 20:33:08,15.08840804,0.0001311,53.2179,302.0949,98.7549,261.3592,9.3811e-05,1.205e-05,0.0,0 STARLINK-5219,1 54094U 22136AV  24004.85634683  .00001205  00000-0  93811-4 0  9993,2 54094  53.2179 302.0949 0001311  98.7549 261.3592 15.08840804 66992,6917.878,95.438,540.65,538.836,0.0
54094.0,STARLINK-5219,PAYLOAD,2024-01-05 01:19:17,15.08844807,0.0001343,53.2179,301.2039,100.4248,259.6895,0.0001274,1.74e-05,0.0,0 STARLINK-5219,1 54094U 22136AV  24005.05506307  .00001740  00000-0  12740-3 0  9992,2 54094  53.2179 301.2039 0001343 100.4248 259.6895 15.08844807 67494,6917.866,95.437,540.66,538.802,0.0
54094.0,STARLINK-5219,PAYLOAD,2024-01-06 04:20:51,15.08841721,0.0001351,53.2182,296.1523,103.7574,256.3569,9.3511e-05,1.201e-05,0.0,0 STARLINK-5219,1 54094U 22136AV  24006.18114768  .00001201  00000-0  93511-4 0  9991,2 54094  53.2182 296.1523 0001351 103.7574 256.3569 15.08841721 67668,6917.875,95.437,540.675,538.806,0.0
54094.0,STARLINK-5219,PAYLOAD,2024-01-07 04:11:37,15.08848046,0.0001645,53.2185,291.6859,78.825,281.2928,5.7438e-05,6.26e-06,0.0,0 STARLINK-5219,1 54094U 22136AV  24007.17474502  .00000626  00000-0  57438-4 0  9994,2 54094  53.2185 291.6859 0001645  78.8250 281.2928 15.08848046 67340,6917.856,95.437,540.859,538.583,0.0
54094.0,STARLINK-5219,PAYLOAD,2024-01-07 21:40:53,15.08837718,0.0001401,53.222,288.4099,104.6878,255.4269,4.1533e-05,3.73e-06,0.0,0 STARLINK-5219,1 54094U 22136AV  24007.90339170  .00000373  00000-0  41533-4 0  9994,2 54094  53.2220 288.4099 0001401 104.6878 255.4269 15.08837718 67451,6917.887,95.438,540.722,538.783,0.0
54094.0,STARLINK-5219,PAYLOAD,2024-01-08 04:02:25,15.08843173,0.0001623,53.2179,287.2286,88.3535,271.7643,0.00010042,1.311e-05,0.0,0 STARLINK-5219,1 54094U 22136AV  24008.16834897  .00001311  00000-0  10042-3 0  9992,2 54094  53.2179 287.2286 0001623  88.3535 271.7643 15.08843173 67968,6917.871,95.437,540.858,538.613,0.0
54094.0,STARLINK-5219,PAYLOAD,2024-01-08 21:31:39,15.08845528,0.0001642,53.2173,283.9567,121.5531,238.5622,7.1695e-06,-1.74e-06,0.0,0 STARLINK-5219,1 54094U 22136AV  24008.89698899 -.00000174  00000-0  71695-5 0  9992,2 54094  53.2173 283.9567 0001642 121.5531 238.5622 15.08845528 67609,6917.863,95.437,540.864,538.593,0.0
54094.0,STARLINK-5219,PAYLOAD,2024-01-09 03:53:11,15.0884999,0.0001517,53.2185,282.7657,103.0956,257.0206,7.4247e-05,8.94e-06,0.0,0 STARLINK-5219,1 54094U 22136AV  24009.16194398  .00000894  00000-0  74247-4 0  9991,2 54094  53.2185 282.7657 0001517 103.0956 257.0206 15.08849990 67641,6917.85,95.437,540.764,538.665,0.0
54094.0,STARLINK-5219,PAYLOAD,2024-01-09 21:22:26,15.08845839,0.0001687,53.2183,279.4937,116.3612,243.7554,1.8019e-05,-1e-08,0.0,0 STARLINK-5219,1 54094U 22136AV  24009.89058875 -.00000001  00000-0  18019-4 0  9996,2 54094  53.2183 279.4937 0001687 116.3612 243.7554 15.08845839 67755,6917.863,95.437,540.895,538.56,0.0
54094.0,STARLINK-5219,PAYLOAD,2024-01-10 03:43:59,15.08846678,0.0001607,53.2177,278.306,109.8815,250.235,5.6893e-05,6.18e-06,0.0,0 STARLINK-5219,1 54094U 22136AV  24010.15554646  .00000618  00000-0  56893-4 0  9999,2 54094  53.2177 278.3060 0001607 109.8815 250.2350 15.08846678 68263,6917.86,95.437,540.837,538.613,0.0
54094.0,STARLINK-5219,PAYLOAD,2024-01-11 03:34:46,15.08840321,0.0001617,53.2181,273.8449,110.3725,249.7441,-2.443e-06,-3.27e-06,0.0,0 STARLINK-5219,1 54094U 22136AV  24011.14915287 -.00000327  00000-0 -24430-5 0  9993,2 54094  53.2181 273.8449 0001617 110.3725 249.7441 15.08840321 68417,6917.879,95.438,540.863,538.626,0.0
54094.0,STARLINK-5219,PAYLOAD,2024-01-11 21:04:01,15.08841553,0.0001801,53.2177,270.5737,119.8497,240.2674,-7.529e-07,-3e-06,0.0,0 STARLINK-5219,1 54094U 22136AV  24011.87779363 -.00000300  00000-0 -75290-6 0  9998,2 54094  53.2177 270.5737 0001801 119.8497 240.2674 15.08841553 68053,6917.876,95.437,540.987,538.495,0.0
54094.0,STARLINK-5219,PAYLOAD,2024-01-11 22:39:24,15.08840933,0.0001592,53.2176,270.2761,107.2168,252.8998,1.4291e-05,-6.1e-07,0.0,0 STARLINK-5219,1 54094U 22136AV  24011.94403406 -.00000061  00000-0  14291-4 0  9993,2 54094  53.2176 270.2761 0001592 107.2168 252.8998 15.08840933 68069,6917.878,95.437,540.844,538.641,0.0
54094.0,STARLINK-5219,PAYLOAD,2024-01-12 22:30:12,15.08835281,0.0001537,53.2177,265.8173,104.9131,255.2031,4.099e-05,3.64e-06,0.0,0 STARLINK-5219,1 54094U 22136AV  24012.93764091  .00000364  00000-0  40990-4 0  9993,2 54094  53.2177 265.8173 0001537 104.9131 255.2031 15.08835281 68212,6917.895,95.438,540.823,538.697,0.0
54094.0,STARLINK-5219,PAYLOAD,2024-01-13 01:40:58,15.08836667,0.000142,53.2174,265.223,89.8889,270.2266,3.8361e-05,3.23e-06,0.0,0 STARLINK-5219,1 54094U 22136AV  24013.07012094  .00000323  00000-0  38361-4 0  9992,2 54094  53.2174 265.2230 0001420  89.8889 270.2266 15.08836667 68709,6917.891,95.438,540.738,538.773,0.0
54094.0,STARLINK-5219,PAYLOAD,2024-01-13 23:56:22,15.08844572,0.0001395,53.2174,261.0628,94.6615,265.4536,7.0959e-05,8.42e-06,0.0,0 STARLINK-5219,1 54094U 22136AV  24013.99747823  .00000842  00000-0  70959-4 0  9993,2 54094  53.2174 261.0628 0001395  94.6615 265.4536 15.08844572 68841,6917.866,95.437,540.696,538.766,0.0
54094.0,STARLINK-5219,PAYLOAD,2024-01-14 22:11:46,15.08842595,0.0001676,53.2169,256.9015,62.3556,297.7606,0.00013096,1.797e-05,0.0,0 STARLINK-5219,1 54094U 22136AV  24014.92484054  .00001797  00000-0  13096-3 0  9999,2 54094  53.2169 256.9015 0001676  62.3556 297.7606 15.08842595 68519,6917.872,95.437,540.897,538.578,0.0
54094.0,STARLINK-5219,PAYLOAD,2024-01-14 23:47:09,15.08845324,0.000163,53.2179,256.6053,64.0494,296.0666,0.00015494,2.179e-05,0.0,0 STARLINK-5219,1 54094U 22136AV  24014.99107837  .00002179  00000-0  15494-3 0  9996,2 54094  53.2179 256.6053 0001630  64.0494 296.0666 15.08845324 68521,6917.864,95.437,540.857,538.602,0.0
54094.0,STARLINK-5219,PAYLOAD,2024-01-15 15:41:01,15.08837726,0.0001773,53.2173,253.6315,69.1137,291.0045,2.1569e-06,-2.54e-06,0.0,0 STARLINK-5219,1 54094U 22136AV  24015.65348855 -.00000254  00000-0  21569-5 0  9992,2 54094  53.2173 253.6315 0001773  69.1137 291.0045 15.08837726 69097,6917.887,95.438,540.979,538.526,0.0
54094.0,STARLINK-5219,PAYLOAD,2024-01-15 20:27:11,15.08834401,0.0001542,53.2174,252.7366,66.2653,293.8501,-1.5462e-05,-5.34e-06,0.0,0 STARLINK-5219,1 54094U 22136AV  24015.85221115 -.00000534  00000-0 -15462-4 0  9999,2 54094  53.2174 252.7366 0001542  66.2653 293.8501 15.08834401 68654,6917.898,95.438,540.829,538.696,0.0
54094.0,STARLINK-5219,PAYLOAD,2024-01-16 01:13:20,15.08837896,0.0001603,53.2174,251.843,78.1412,281.976,-2.9842e-07,-2.93e-06,0.0,0 STARLINK-5219,1 54094U 22136AV  24016.05092838 -.00000293  00000-0 -29842-6 0  9991,2 54094  53.2174 251.8430 0001603  78.1412 281.9760 15.08837896 68688,6917.887,95.438,540.861,538.643,0.0
54094.0,STARLINK-5219,PAYLOAD,2024-01-16 18:42:33,15.08851393,0.0001434,53.2163,248.5729,85.1792,274.9364,7.7889e-05,9.52e-06,0.0,0 STARLINK-5219,1 54094U 22136AV  24016.77955759  .00000952  00000-0  77889-4 0  9992,2 54094  53.2163 248.5729 0001434  85.1792 274.9364 15.08851393 69266,6917.846,95.437,540.703,538.719,0.0
54094.0,STARLINK-5219,PAYLOAD,2024-01-16 21:53:19,15.08856084,0.0001557,53.2172,247.9783,83.9303,276.1867,0.00010012,1.306e-05,0.0,0 STARLINK-5219,1 54094U 22136AV  24016.91203400  .00001306  00000-0  10012-3 0  9995,2 54094  53.2172 247.9783 0001557  83.9303 276.1867 15.08856084 68813,6917.831,95.437,540.773,538.619,0.0
54094.0,STARLINK-5219,PAYLOAD,2024-01-17 20:08:44,15.08839343,0.0001445,53.2166,243.8132,96.8165,263.2991,0.00012555,1.711e-05,0.0,0 STARLINK-5219,1 54094U 22136AV  24017.83940428  .00001711  00000-0  12555-3 0  9999,2 54094  53.2166 243.8132 0001445  96.8165 263.2991 15.08839343 69426,6917.882,95.438,540.747,538.748,0.0
54094.0,STARLINK-5219,PAYLOAD,2024-01-17 21:44:07,15.08839135,0.0001453,53.2167,243.5159,96.8978,263.218,0.00011939,1.613e-05,0.0,0 STARLINK-5219,1 54094U 22136AV  24017.90564428  .00001613  00000-0  11939-3 0  9995,2 54094  53.2167 243.5159 0001453  96.8978 263.2180 15.08839135 68961,6917.883,95.438,540.753,538.743,0.0
54094.0,STARLINK-5219,PAYLOAD,2024-01-18 21:34:54,15.08847613,0.0001363,53.2161,239.0542,92.8931,267.2218,-1.9393e-05,-5.97e-06,0.0,0 STARLINK-5219,1 54094U 22136AV  24018.89924122 -.00000597  00000-0 -19393-4 0  9990,2 54094  53.2161 239.0542 0001363  92.8931 267.2218 15.08847613 69110,6917.857,95.437,540.665,538.779,0.0
54094.0,STARLINK-5219,PAYLOAD,2024-01-19 13:28:45,15.08839108,0.0001542,53.217,236.0861,111.2109,248.9048,8.7198e-05,1.1e-05,0.0,0 STARLINK-5219,1 54094U 22136AV  24019.56164324  .00001100  00000-0  87198-4 0  9992,2 54094  53.2170 236.0861 0001542 111.2109 248.9048 15.08839108 69211,6917.883,95.438,540.815,538.681,0.0
54094.0,STARLINK-5219,PAYLOAD,2024-01-19 19:50:18,15.0883722,0.0001503,53.2168,234.8945,110.0342,250.0812,6.0088e-05,6.68e-06,0.0,0 STARLINK-5219,1 54094U 22136AV  24019.82660538  .00000668  00000-0  60088-4 0  9996,2 54094  53.2168 234.8945 0001503 110.0342 250.0812 15.08837220 69722,6917.889,95.438,540.794,538.714,0.0
